ONEWEB-0461             
1 51649U 22012AD  24157.93999954  .00000056  00000+0  11097-3 0  9999
2 51649  87.9162 153.4109 0001924  87.4475 272.6877 13.17647411116275
ONEWEB-0463             
1 51650U 22012AE  24157.92258481  .00000045  00000+0  83016-4 0  9992
2 51650  87.9163 153.4611 0001935  89.7592 270.3762 13.17651582116051
ONEWEB-0464             
1 51651U 22012AF  24157.83069561  .00000690  00000+0  19399-2 0  9999
2 51651  87.8947 183.6618 0002454  91.9447 268.1961 13.10372669112235
ONEWEB-0468             
1 51652U 22012AG  24157.83734690  .00000658  00000+0  18498-2 0  9995
2 51652  87.8945 183.6535 0002164  93.3176 266.8199 13.10371852112214
ONEWEB-0473             
1 51653U 22012AH  24157.82239053  .00000543  00000+0  15179-2 0  9994
2 51653  87.8950 183.6597 0002131  94.8044 265.3327 13.10374936112216
ONEWEB-0474             
1 51654U 22012AJ  24157.81408290  .00000145  00000+0  38054-3 0  9991
2 51654  87.8943 183.6592 0002296  96.3222 263.8167 13.10376600112205
ONEWEB-0475             
1 51655U 22012AK  24157.70586583  .00000047  00000+0  89140-4 0  9996
2 51655  87.9164 153.4830 0002361  97.7645 262.3755 13.17647793116043
ONEWEB-0490             
1 54113U 22138A   24157.57052417 -.00000008  00000+0 -52659-4 0  9990
2 54113  87.9147  92.5516 0002198  81.3958 278.7424 13.19723416 79887
